GLOBALSTAR M035 [-]     
1 25851U 99037A   23362.94245323 -.00000057  00000+0  24336-3 0  9990
2 25851  51.9910 170.8242 0013655 186.5857 344.8416 11.04528134 37001
GLOBALSTAR M032 [-]     
1 25852U 99037B   23362.85245025 -.00000031  00000+0  11413-2 0  9993
2 25852  51.9978  33.2321 0008525 342.7843  17.2667 11.19047862 74748
GLOBALSTAR M051 [-]     
1 25853U 99037C   23362.86226835 -.00000023  00000+0  12065-2 0  9998
2 25853  51.9784 254.6974 0001837   5.3571 354.7259 11.42195002 71105
GLOBALSTAR M030 [-]     
1 25854U 99037D   23362.56533866 -.00000027  00000+0  10252-2 0  9991
2 25854  51.9880  95.6350 0005113 155.1997 204.9067 11.55087067 88039
GLOBALSTAR M048 [-]     
1 25872U 99041A   23362.77396781 -.00000081  00000+0 -30097-3 0  9993
2 25872  51.9334 169.1974 0012547 341.5569 118.2778 11.33842527 64134
GLOBALSTAR M026 [-]     
1 25873U 99041B   23362.89209359 -.00000045  00000+0  70043-3 0  9995
2 25873  52.0024 294.5529 0001969  71.7740  27.8513 11.06833073 89103
GLOBALSTAR M043 [-]     
1 25874U 99041C   23362.84433868 -.00000083  00000+0 -43495-3 0  9999
2 25874  51.9392 255.3016 0013575 114.8719 319.9917 11.25673710 62472
GLOBALSTAR M028 [-]     
1 25875U 99041D   23362.85424308 -.00000106  00000+0 -37917-4 0  9999
2 25875  51.9651 352.2662 0063566 346.9577  12.9638 12.50546818123071
